GPS BIIR-2  (PRN 13)    
1 24876U 97035A   16033.98933304  .00000075  00000-0  00000+0 0  9994
2 24876  55.7052 246.8249 0044594 115.0275 245.4957  2.00562491135795
GPS BIIR-3  (PRN 11)    
1 25933U 99055A   16035.09332245  .00000000  00000-0  10000-3 0  9997
2 25933  51.3093  99.5576 0159879  85.9106 275.9763  2.00566409119646
GPS BIIR-4  (PRN 20)    
1 26360U 00025A   16034.52101272  .00000033  00000-0  00000+0 0  9993
2 26360  53.0720 175.7286 0047100  75.3462 336.9089  2.00560908115310
GPS BIIR-5  (PRN 28)    
1 26407U 00040A   16034.57072424 -.00000054  00000-0  00000+0 0  9997
2 26407  56.6983   4.6153 0202097 266.8005  97.9069  2.00569914113993
GPS BIIR-6  (PRN 14)    
1 26605U 00071A   16035.15175495  .00001372  00000-0  10000-3 0  9996
2 26605  55.2744 244.6989 0085125 248.9125 110.2413  2.00559428111619
GPS BIIR-7  (PRN 18)    
1 26690U 01004A   16034.51287785  .00000038  00000-0  00000+0 0  9995
2 26690  53.0008 178.7071 0168098 250.5046 102.1346  2.00564562109991
GPS BIIR-8  (PRN 16)    
1 27663U 03005A   16034.21834218 -.00000055  00000-0  00000+0 0  9995
2 27663  56.7741   4.3380 0084339  16.9382 217.6985  2.00561037 95343
GPS BIIR-9  (PRN 21)    
1 27704U 03010A   16034.49559852 -.00000033  00000-0  00000+0 0  9991
2 27704  53.6036 118.9865 0232899 255.0789 140.0256  2.00562864 94152
GPS BIIR-10 (PRN 22)    
1 28129U 03058A   16035.11544645  .00000000  00000-0  10000-3 0  9997
2 28129  52.8780 178.7270 0078221 244.7063 114.4573  2.00399007 88878
GPS BIIR-11 (PRN 19)    
1 28190U 04009A   16034.20890461 -.00000020  00000-0  00000+0 0  9999
2 28190  55.7073  65.7621 0111109  37.7498 350.7359  2.00386472 87028
GPS BIIR-12 (PRN 23)    
1 28361U 04023A   16034.29938631  .00000081  00000-0  00000+0 0  9992
2 28361  54.2422 240.3566 0105676 211.2464 145.3035  2.00556390 85107
GPS BIIR-13 (PRN 02)    
1 28474U 04045A   16034.26228047 -.00000033  00000-0  00000+0 0  9999
2 28474  53.9954 118.2628 0155595 235.9821  97.1211  2.00558417 82474
GPS BIIRM-1 (PRN 17)    
1 28874U 05038A   16034.19096532 -.00000019  00000-0  00000+0 0  9994
2 28874  55.8748  62.9528 0111688 248.3487 140.5113  2.00568622 75874
GPS BIIRM-2 (PRN 31)    
1 29486U 06042A   16034.39526477 -.00000037  00000-0  00000+0 0  9998
2 29486  55.7204 302.2490 0084412 333.3268 124.5872  2.00562241 68590
GPS BIIRM-3 (PRN 12)    
1 29601U 06052A   16034.20031019 -.00000056  00000-0  00000+0 0  9992
2 29601  56.7443   3.2641 0056636  36.2096 324.1761  2.00550636 67506
GPS BIIRM-4 (PRN 15)    
1 32260U 07047A   16034.02759566  .00000080  00000-0  00000+0 0  9992
2 32260  53.3720 237.1562 0079408  25.8718 334.5699  2.00549261 60880
GPS BIIRM-5 (PRN 29)    
1 32384U 07062A   16034.49160311 -.00000016  00000-0  00000+0 0  9991
2 32384  55.9283  63.4913 0011674 317.4127 155.0587  2.00570111 59624
GPS BIIRM-6 (PRN 07)    
1 32711U 08012A   16034.43403768 -.00000036  00000-0  00000+0 0  9993
2 32711  55.4428 301.7407 0091418 207.7920 151.7659  2.00563477 57815
GPS BIIRM-7 (PRN 04)    
1 34661U 09014A   16034.51653414 -.00000058  00000-0  00000+0 0  9990
2 34661  56.3480   1.6226 0078930  47.8596  77.4098  2.00573407 50346
GPS BIIRM-8 (PRN 05)    
1 35752U 09043A   16034.43613098  .00000043  00000-0  00000+0 0  9992
2 35752  54.2255 179.7767 0044816  25.2896   5.6815  2.00557214 47390
GPS BIIF-1  (PRN 25)    
1 36585U 10022A   16034.46664998 -.00000059  00000-0  00000+0 0  9992
2 36585  56.0748   0.4144 0049368  37.7365 122.7340  2.00577027 41636
GPS BIIF-2  (PRN 01)    
1 37753U 11036A   16034.54825431 -.00000030  00000-0  00000+0 0  9995
2 37753  55.2144 120.7176 0049094  24.5831 278.1907  2.00565836 33321
GPS BIIF-3  (PRN 24)    
1 38833U 12053A   16034.11777664 -.00000035  00000-0  00000+0 0  9997
2 38833  54.4753 299.1639 0041300  17.2864 342.9039  2.00567901 24398
GPS BIIF-4  (PRN 27)    
1 39166U 13023A   16034.47562547 -.00000018  00000-0  00000+0 0  9997
2 39166  55.5852  60.1200 0030979   7.5676 352.5414  2.00568674 19928
GPS BIIF-5  (PRN 30)    
1 39533U 14008A   16033.97563303 -.00000045  00000-0  00000+0 0  9994
2 39533  54.6288 304.3818 0016619 182.0979 177.9394  2.00567187 14285
GPS BIIF-6  (PRN 06)    
1 39741U 14026A   16033.75340069 -.00000033  00000-0  00000+0 0  9990
2 39741  55.2055 120.2651 0004869 250.6357 109.3387  2.00568628 12551
GPS BIIF-7  (PRN 09)    
1 40105U 14045A   16034.34618749  .00000083  00000-0  00000+0 0  9990
2 40105  54.7601 239.9939 0004171 118.9749 241.1187  2.00566841 11010
GPS BIIF-8  (PRN 03)    
1 40294U 14068A   16035.21016087  .00000000  00000-0  10000-3 0  9992
2 40294  54.9641 180.3401 0003500 212.7866 147.1685  2.00551697  9250
GPS BIIF-9  (PRN 26)    
1 40534U 15013A   16034.35342459 -.00000062  00000-0  00000+0 0  9993
2 40534  55.0446   0.0194 0008613 335.6958  24.2671  2.00560254  6308
GPS BIIF-10  (PRN 08)   
1 40730U 15033A   16033.51535672 -.00000027  00000-0  00000-0 0  9993
2 40730  55.1213  60.0563 0020075 277.7346  82.0964  2.00567500  4045
GPS BIIF-11  (PRN 10)   
1 41019U 15062A   16033.56804115  .00000050  00000-0  00000+0 0  9996
2 41019  54.9782 180.1695 0011286 203.2470 156.6766  2.00561925  1860
